ONEWEB-0415             
1 51624U 22012C   25194.44053171  .00000467  00000+0  13014-2 0  9998
2 51624  87.8815 103.8309 0002108  68.9698 291.1654 13.10369706164924
ONEWEB-0416             
1 51625U 22012D   25194.68122022 -.00000098  00000+0 -31653-3 0  9999
2 51625  87.8821 103.8007 0001879  75.0106 285.1230 13.10369614164992
ONEWEB-0422             
1 51626U 22012E   25195.15957556  .00000034  00000+0  53631-4 0  9990
2 51626  87.9053  73.1351 0002545  87.5305 272.6118 13.17649397170575
ONEWEB-0423             
1 51627U 22012F   25194.62127161  .00000045  00000+0  82030-4 0  9990
2 51627  87.9054  73.2504 0001854  82.6695 277.4647 13.17648373169119
ONEWEB-0425             
1 51628U 22012G   25195.14931754 -.00000422  00000+0 -12461-2 0  9990
2 51628  87.8814 103.6775 0001610  82.9075 277.2235 13.10370579166342
ONEWEB-0428             
1 51629U 22012H   25195.20577406  .00000610  00000+0  17118-2 0  9999
2 51629  87.8818 103.6879 0002135  77.1545 282.9820 13.10370206166309
ONEWEB-0431             
1 51630U 22012J   25194.48853285  .00000052  00000+0  11402-3 0  9993
2 51630  87.8818 103.8014 0002472  69.6853 290.4540 13.10376039164981
ONEWEB-0434             
1 51631U 22012K   25194.69448808 -.00000567  00000+0 -16620-2 0  9997
2 51631  87.8822 103.8025 0001394  91.6201 268.5086 13.10371586164997
